*******************************************************************************
Ephemeris / WWW_USER Mon Mar 24 07:07:18 2025 Pasadena, USA      / Horizons    
*******************************************************************************
Target body name: 358P/PANSTARRS                  {source: JPL#33}
Center body name: Earth (399)                     {source: DE441}
Center-site name: Mauna Kea
*******************************************************************************
Start time      : A.D. 2018-Nov-11 03:53:00.0000 UT      
Stop  time      : A.D. 2018-Nov-11 16:18:00.0000 UT      
Step-size       : 1 minutes
*******************************************************************************
Target pole/equ : undefined
Target radii    : undefined                                                    
Center geodetic : 204.5278, 19.8260847, 4.21024   {E-lon(deg),Lat(deg),Alt(km)}
Center cylindric: 204.5278, 6006.35451, 2151.0229 {E-lon(deg),Dxy(km),Dz(km)}
Center pole/equ : ITRF93                          {East-longitude positive}
Center radii    : 6378.137, 6378.137, 6356.752 km {Equator_a, b, pole_c}       
Target primary  : Sun
Vis. interferer : MOON (R_eq= 1737.400) km        {source: DE441}
Rel. light bend : Sun                             {source: DE441}
Rel. lght bnd GM: 1.3271E+11 km^3/s^2                                          
Small-body perts: Yes                             {source: SB441-N16}
Atmos refraction: NO (AIRLESS)
RA format       : HMS
Time format     : CAL 
Calendar mode   : Mixed Julian/Gregorian
RTS-only print  : NO       
EOP file        : eop.250321.p250617                                           
EOP coverage    : DATA-BASED 1962-JAN-20 TO 2025-MAR-21. PREDICTS-> 2025-JUN-16
Units conversion: 1 au= 149597870.700 km, c= 299792.458 km/s, 1 day= 86400.0 s 
Table cut-offs 1: Elevation (-90.0deg=NO ),Airmass (>38.000=NO), Daylight (YES)
Table cut-offs 2: Solar elongation (  0.0,180.0=NO ),Local Hour Angle( 0.0=NO )
Table cut-offs 3: RA/DEC angular rate (     0.0=NO )                           
*******************************************************************************
Initial IAU76/J2000 heliocentric ecliptic osculating elements (au, days, deg.):
  EPOCH=  2459793.5 ! 2022-Aug-02.0000000 (TDB)    RMSW= n.a.                  
   EC= .2388922136090974   QR= 2.394903345037887   TP= 2460259.6862889272      
   OM= 85.70246509974154   W= 299.7728624007243    IN= 11.06025031481611       
  Equivalent ICRF heliocentric cartesian coordinates (au, au/d):
   X= 3.243054425204740E-01  Y=-2.897679241187805E+00  Z=-1.376383147061824E+00
  VX= 8.746409534656921E-03 VY= 3.598394346577952E-03 VZ=-2.469697424538527E-04
Comet physical (GM= km^3/s^2; RAD= km):                                        
   GM= n.a.                RAD= n.a.                                           
   M1=  7.8      M2=  17.2     k1=  30.    k2=  5.      PHCOF=  .030           
Comet non-gravitational force model (AMRAT=m^2/kg;A1-A3=au/d^2;DT=days;R0=au): 
   AMRAT=  0.                                      DT=  0.                     
   A1= 0.                  A2= -2.303385920823E-10 A3= 0.                      
 Standard model:                                                               
   ALN=  .1112620426   NK=  4.6142   NM=  2.15     NN=  5.093    R0=  2.808    
*******************************************************************************
 Date__(UT)__HR:MN     R.A._________(ICRF)_________DEC
******************************************************
$$SOE
 2018-Nov-11 13:38     06 51 40.660848 +22 35 15.12396
 2018-Nov-11 13:39     06 51 40.656483 +22 35 15.28383
 2018-Nov-11 13:40     06 51 40.652117 +22 35 15.44367
 2018-Nov-11 13:41     06 51 40.647750 +22 35 15.60348
 2018-Nov-11 13:42     06 51 40.643381 +22 35 15.76326
 2018-Nov-11 13:43     06 51 40.639012 +22 35 15.92301
 2018-Nov-11 13:44     06 51 40.634641 +22 35 16.08273
 2018-Nov-11 13:45     06 51 40.630269 +22 35 16.24242
 2018-Nov-11 13:46     06 51 40.625897 +22 35 16.40209
 2018-Nov-11 13:47     06 51 40.621523 +22 35 16.56172
 2018-Nov-11 13:48     06 51 40.617148 +22 35 16.72132
 2018-Nov-11 13:49     06 51 40.612772 +22 35 16.88090
 2018-Nov-11 13:50     06 51 40.608396 +22 35 17.04044
 2018-Nov-11 13:51     06 51 40.604018 +22 35 17.19996
 2018-Nov-11 13:52     06 51 40.599639 +22 35 17.35945
 2018-Nov-11 13:53  t  06 51 40.595260 +22 35 17.51890
 2018-Nov-11 13:54     06 51 40.590880 +22 35 17.67833
 2018-Nov-11 13:55     06 51 40.586499 +22 35 17.83773
 2018-Nov-11 13:56     06 51 40.582117 +22 35 17.99710
 2018-Nov-11 13:57     06 51 40.577734 +22 35 18.15643
 2018-Nov-11 13:58     06 51 40.573351 +22 35 18.31574
 2018-Nov-11 13:59     06 51 40.568966 +22 35 18.47502
 2018-Nov-11 14:00     06 51 40.564582 +22 35 18.63428
 2018-Nov-11 14:01     06 51 40.560196 +22 35 18.79350
 2018-Nov-11 14:02     06 51 40.555810 +22 35 18.95269
 2018-Nov-11 14:03     06 51 40.551423 +22 35 19.11185
 2018-Nov-11 14:04     06 51 40.547036 +22 35 19.27098
 2018-Nov-11 14:05     06 51 40.542648 +22 35 19.43009
 2018-Nov-11 14:06     06 51 40.538260 +22 35 19.58916
 2018-Nov-11 14:07     06 51 40.533871 +22 35 19.74821
 2018-Nov-11 14:08     06 51 40.529481 +22 35 19.90722
 2018-Nov-11 14:09     06 51 40.525091 +22 35 20.06621
 2018-Nov-11 14:10     06 51 40.520701 +22 35 20.22517
 2018-Nov-11 14:11     06 51 40.516310 +22 35 20.38409
 2018-Nov-11 14:12     06 51 40.511919 +22 35 20.54299
 2018-Nov-11 14:13     06 51 40.507528 +22 35 20.70186
 2018-Nov-11 14:14     06 51 40.503136 +22 35 20.86070
 2018-Nov-11 14:15     06 51 40.498744 +22 35 21.01951
 2018-Nov-11 14:16     06 51 40.494351 +22 35 21.17829
 2018-Nov-11 14:17     06 51 40.489959 +22 35 21.33705
 2018-Nov-11 14:18     06 51 40.485566 +22 35 21.49577
 2018-Nov-11 14:19     06 51 40.481173 +22 35 21.65446
 2018-Nov-11 14:20     06 51 40.476779 +22 35 21.81313
 2018-Nov-11 14:21     06 51 40.472386 +22 35 21.97176
 2018-Nov-11 14:22     06 51 40.467992 +22 35 22.13037
 2018-Nov-11 14:23     06 51 40.463599 +22 35 22.28894
 2018-Nov-11 14:24     06 51 40.459205 +22 35 22.44749
 2018-Nov-11 14:25     06 51 40.454811 +22 35 22.60601
 2018-Nov-11 14:26     06 51 40.450418 +22 35 22.76450
 2018-Nov-11 14:27     06 51 40.446024 +22 35 22.92296
 2018-Nov-11 14:28     06 51 40.441630 +22 35 23.08139
 2018-Nov-11 14:29     06 51 40.437237 +22 35 23.23979
 2018-Nov-11 14:30     06 51 40.432843 +22 35 23.39817
 2018-Nov-11 14:31     06 51 40.428449 +22 35 23.55651
 2018-Nov-11 14:32     06 51 40.424056 +22 35 23.71483
 2018-Nov-11 14:33     06 51 40.419663 +22 35 23.87311
 2018-Nov-11 14:34     06 51 40.415270 +22 35 24.03137
 2018-Nov-11 14:35     06 51 40.410877 +22 35 24.18960
 2018-Nov-11 14:36     06 51 40.406485 +22 35 24.34780
 2018-Nov-11 14:37     06 51 40.402092 +22 35 24.50597
 2018-Nov-11 14:38     06 51 40.397700 +22 35 24.66411
 2018-Nov-11 14:39     06 51 40.393309 +22 35 24.82222
 2018-Nov-11 14:40     06 51 40.388917 +22 35 24.98031
 2018-Nov-11 14:41     06 51 40.384526 +22 35 25.13837
 2018-Nov-11 14:42     06 51 40.380136 +22 35 25.29639
 2018-Nov-11 14:43     06 51 40.375745 +22 35 25.45439
 2018-Nov-11 14:44     06 51 40.371356 +22 35 25.61236
 2018-Nov-11 14:45     06 51 40.366966 +22 35 25.77030
 2018-Nov-11 14:46     06 51 40.362577 +22 35 25.92821
 2018-Nov-11 14:47     06 51 40.358189 +22 35 26.08610
 2018-Nov-11 14:48     06 51 40.353801 +22 35 26.24395
 2018-Nov-11 14:49     06 51 40.349414 +22 35 26.40178
 2018-Nov-11 14:50     06 51 40.345028 +22 35 26.55958
 2018-Nov-11 14:51     06 51 40.340642 +22 35 26.71735
 2018-Nov-11 14:52     06 51 40.336256 +22 35 26.87509
 2018-Nov-11 14:53     06 51 40.331871 +22 35 27.03281
 2018-Nov-11 14:54     06 51 40.327487 +22 35 27.19049
 2018-Nov-11 14:55     06 51 40.323104 +22 35 27.34815
 2018-Nov-11 14:56     06 51 40.318722 +22 35 27.50578
 2018-Nov-11 14:57     06 51 40.314340 +22 35 27.66338
 2018-Nov-11 14:58     06 51 40.309959 +22 35 27.82095
 2018-Nov-11 14:59     06 51 40.305579 +22 35 27.97849
 2018-Nov-11 15:00     06 51 40.301199 +22 35 28.13601
 2018-Nov-11 15:01     06 51 40.296821 +22 35 28.29350
 2018-Nov-11 15:02     06 51 40.292443 +22 35 28.45096
 2018-Nov-11 15:03     06 51 40.288067 +22 35 28.60839
 2018-Nov-11 15:04     06 51 40.283691 +22 35 28.76579
 2018-Nov-11 15:05     06 51 40.279316 +22 35 28.92317
 2018-Nov-11 15:06     06 51 40.274942 +22 35 29.08052
 2018-Nov-11 15:07     06 51 40.270569 +22 35 29.23784
 2018-Nov-11 15:08     06 51 40.266198 +22 35 29.39513
 2018-Nov-11 15:09     06 51 40.261827 +22 35 29.55240
 2018-Nov-11 15:10     06 51 40.257457 +22 35 29.70964
 2018-Nov-11 15:11     06 51 40.253089 +22 35 29.86685
 2018-Nov-11 15:12     06 51 40.248722 +22 35 30.02403
 2018-Nov-11 15:13 A   06 51 40.244355 +22 35 30.18118
 2018-Nov-11 15:14 A   06 51 40.239990 +22 35 30.33831
 2018-Nov-11 15:15 A   06 51 40.235627 +22 35 30.49541
 2018-Nov-11 15:16 A   06 51 40.231264 +22 35 30.65249
 2018-Nov-11 15:17 A   06 51 40.226903 +22 35 30.80953
 2018-Nov-11 15:18 A   06 51 40.222543 +22 35 30.96655
 2018-Nov-11 15:19 A   06 51 40.218184 +22 35 31.12354
 2018-Nov-11 15:20 A   06 51 40.213827 +22 35 31.28050
 2018-Nov-11 15:21 A   06 51 40.209471 +22 35 31.43744
 2018-Nov-11 15:22 A   06 51 40.205116 +22 35 31.59435
 2018-Nov-11 15:23 A   06 51 40.200763 +22 35 31.75123
 2018-Nov-11 15:24 A   06 51 40.196411 +22 35 31.90809
 2018-Nov-11 15:25 A   06 51 40.192060 +22 35 32.06492
 2018-Nov-11 15:26 A   06 51 40.187711 +22 35 32.22172
 2018-Nov-11 15:27 A   06 51 40.183364 +22 35 32.37850
 2018-Nov-11 15:28 A   06 51 40.179018 +22 35 32.53525
 2018-Nov-11 15:29 A   06 51 40.174674 +22 35 32.69197
 2018-Nov-11 15:30 A   06 51 40.170331 +22 35 32.84866
 2018-Nov-11 15:31 A   06 51 40.165990 +22 35 33.00533
 2018-Nov-11 15:32 A   06 51 40.161650 +22 35 33.16197
 2018-Nov-11 15:33 A   06 51 40.157312 +22 35 33.31859
 2018-Nov-11 15:34 A   06 51 40.152976 +22 35 33.47518
